{
  "type": "FeatureCollection",
  "features": [
    {
      "type": "Feature",
      "properties": {
        "norad_id": 33412,
        "name": "COSMO-SKYMED 3",
        "group": "resource",
        "lat": 11.495212220726444,
        "lon": 16.872516325971077,
        "alt_km": 541.1790454877837,
        "timestamp": "2025-12-10T21:43:21.743183+00:00",
        "meta_object_name": "COSMO-SKYMED 3",
        "meta_object_id": "2008-054A",
        "meta_epoch": "2025-12-10T14:35:45.552768",
        "meta_mean_motion": 15.05319334,
        "meta_eccentricity": 0.00159017,
        "meta_inclination": 97.8462,
        "meta_ra_of_asc_node": 194.9637,
        "meta_arg_of_pericenter": 181.3658,
        "meta_mean_anomaly": 178.7527,
        "meta_ephemeris_type": 0,
        "meta_classification_type": "U",
        "meta_norad_cat_id": 33412,
        "meta_element_set_no": 999,
        "meta_rev_at_epoch": 92855,
        "meta_bstar": 0.00042978233,
        "meta_mean_motion_dot": 6.104e-05,
        "meta_mean_motion_ddot": 0,
        "tle_line1": "1 33412U 08054A   25344.60816612  .00006104  00000+0  42978-3 0  9991",
        "tle_line2": "2 33412  97.8462 194.9637 0015901 181.3658 178.7527 15.05319334928558"
      },
      "geometry": {
        "type": "Point",
        "coordinates": [
          16.872516325971077,
          11.495212220726444
        ]
      }
    },
    {
      "type": "Feature",
      "properties": {
        "norad_id": 33446,
        "name": "YAOGAN-4",
        "group": "resource",
        "lat": -60.08208019639519,
        "lon": -70.9814567387546,
        "alt_km": 619.7543911793964,
        "timestamp": "2025-12-10T21:43:21.743194+00:00",
        "meta_object_name": "YAOGAN-4",
        "meta_object_id": "2008-061A",
        "meta_epoch": "2025-12-10T09:02:22.074432",
        "meta_mean_motion": 14.82671071,
        "meta_eccentricity": 0.00137719,
        "meta_inclination": 97.918,
        "meta_ra_of_asc_node": 274.4991,
        "meta_arg_of_pericenter": 331.4072,
        "meta_mean_anomaly": 28.6385,
        "meta_ephemeris_type": 0,
        "meta_classification_type": "U",
        "meta_norad_cat_id": 33446,
        "meta_element_set_no": 999,
        "meta_rev_at_epoch": 91768,
        "meta_bstar": 0.00031259873,
        "meta_mean_motion_dot": 2.471e-05,
        "meta_mean_motion_ddot": 0,
        "tle_line1": "1 33446U 08061A   25344.37664438  .00002471  00000+0  31260-3 0  9992",
        "tle_line2": "2 33446  97.9180 274.4991 0013771 331.4072  28.6385 14.82671071917681"
      },
      "geometry": {
        "type": "Point",
        "coordinates": [
          -70.9814567387546,
          -60.08208019639519
        ]
      }
    },
    {
      "type": "Feature",
      "properties": {
        "norad_id": 33492,
        "name": "GOSAT (IBUKI)",
        "group": "resource",
        "lat": 81.87130834214035,
        "lon": -2.644388250967726,
        "alt_km": 660.7728336439368,
        "timestamp": "2025-12-10T21:43:21.743204+00:00",
        "meta_object_name": "GOSAT (IBUKI)",
        "meta_object_id": "2009-002A",
        "meta_epoch": "2025-12-10T06:34:58.841760",
        "meta_mean_motion": 14.6754762,
        "meta_eccentricity": 9.44e-05,
        "meta_inclination": 98.0768,
        "meta_ra_of_asc_node": 92.9119,
        "meta_arg_of_pericenter": 89.0594,
        "meta_mean_anomaly": 271.0719,
        "meta_ephemeris_type": 0,
        "meta_classification_type": "U",
        "meta_norad_cat_id": 33492,
        "meta_element_set_no": 999,
        "meta_rev_at_epoch": 90375,
        "meta_bstar": 0.00027075,
        "meta_mean_motion_dot": 1.488e-05,
        "meta_mean_motion_ddot": 0,
        "tle_line1": "1 33492U 09002A   25344.27429215  .00001488  00000+0  27075-3 0  9996",
        "tle_line2": "2 33492  98.0768  92.9119 0000944  89.0594 271.0719 14.67547620903757"
      },
      "geometry": {
        "type": "Point",
        "coordinates": [
          -2.644388250967726,
          81.87130834214035
        ]
      }
    },
    {
      "type": "Feature",
      "properties": {
        "norad_id": 35681,
        "name": "DEIMOS-1",
        "group": "resource",
        "lat": 59.13467330414458,
        "lon": -21.296810393374592,
        "alt_km": 638.1033293087803,
        "timestamp": "2025-12-10T21:43:21.743216+00:00",
        "meta_object_name": "DEIMOS-1",
        "meta_object_id": "2009-041A",
        "meta_epoch": "2025-12-10T14:40:06.364128",
        "meta_mean_motion": 14.7494638,
        "meta_eccentricity": 0.00027311,
        "meta_inclination": 97.7149,
        "meta_ra_of_asc_node": 145.3133,
        "meta_arg_of_pericenter": 82.6891,
        "meta_mean_anomaly": 277.4629,
        "meta_ephemeris_type": 0,
        "meta_classification_type": "U",
        "meta_norad_cat_id": 35681,
        "meta_element_set_no": 999,
        "meta_rev_at_epoch": 87908,
        "meta_bstar": 0.00014020242,
        "meta_mean_motion_dot": 8.95e-06,
        "meta_mean_motion_ddot": 0,
        "tle_line1": "1 35681U 09041A   25344.61118477  .00000895  00000+0  14020-3 0  9991",
        "tle_line2": "2 35681  97.7149 145.3133 0002731  82.6891 277.4629 14.74946380879084"
      },
      "geometry": {
        "type": "Point",
        "coordinates": [
          -21.296810393374592,
          59.13467330414458
        ]
      }
    },
    {
      "type": "Feature",
      "properties": {
        "norad_id": 35682,
        "name": "DUBAISAT-1",
        "group": "resource",
        "lat": 56.24469585944663,
        "lon": 103.49704265398947,
        "alt_km": 641.7875219431271,
        "timestamp": "2025-12-10T21:43:21.743227+00:00",
        "meta_object_name": "DUBAISAT-1",
        "meta_object_id": "2009-041B",
        "meta_epoch": "2025-12-10T14:57:02.506752",
        "meta_mean_motion": 14.74594827,
        "meta_eccentricity": 0.000971,
        "meta_inclination": 97.9789,
        "meta_ra_of_asc_node": 115.3339,
        "meta_arg_of_pericenter": 321.8979,
        "meta_mean_anomaly": 38.1542,
        "meta_ephemeris_type": 0,
        "meta_classification_type": "U",
        "meta_norad_cat_id": 35682,
        "meta_element_set_no": 999,
        "meta_rev_at_epoch": 87730,
        "meta_bstar": 0.00035071611,
        "meta_mean_motion_dot": 2.288e-05,
        "meta_mean_motion_ddot": 0,
        "tle_line1": "1 35682U 09041B   25344.62294568  .00002288  00000+0  35072-3 0  9997",
        "tle_line2": "2 35682  97.9789 115.3339 0009710 321.8979  38.1542 14.74594827877305"
      },
      "geometry": {
        "type": "Point",
        "coordinates": [
          103.49704265398947,
          56.24469585944663
        ]
      }
    },
    {
      "type": "Feature",
      "properties": {
        "norad_id": 35931,
        "name": "OCEANSAT-2",
        "group": "resource",
        "lat": 8.749105247920651,
        "lon": -15.583257392439982,
        "alt_km": 887.8144000761322,
        "timestamp": "2025-12-10T21:43:21.743237+00:00",
        "meta_object_name": "OCEANSAT-2",
        "meta_object_id": "2009-051A",
        "meta_epoch": "2025-12-10T14:49:04.319904",
        "meta_mean_motion": 13.99625128,
        "meta_eccentricity": 0.00162903,
        "meta_inclination": 98.2224,
        "meta_ra_of_asc_node": 345.4333,
        "meta_arg_of_pericenter": 50.6103,
        "meta_mean_anomaly": 309.6504,
        "meta_ephemeris_type": 0,
        "meta_classification_type": "U",
        "meta_norad_cat_id": 35931,
        "meta_element_set_no": 999,
        "meta_rev_at_epoch": 85295,
        "meta_bstar": -7.5802511e-05,
        "meta_mean_motion_dot": -1.48e-06,
        "meta_mean_motion_ddot": 0,
        "tle_line1": "1 35931U 09051A   25344.61741111 -.00000148  00000+0 -75803-4 0  9997",
        "tle_line2": "2 35931  98.2224 345.4333 0016290  50.6103 309.6504 13.99625128852950"
      },
      "geometry": {
        "type": "Point",
        "coordinates": [
          -15.583257392439982,
          8.749105247920651
        ]
      }
    },
    {
      "type": "Feature",
      "properties": {
        "norad_id": 35946,
        "name": "WORLDVIEW-2 (WV-2)",
        "group": "resource",
        "lat": -58.294812956386096,
        "lon": -137.95466658409265,
        "alt_km": 777.0877062596055,
        "timestamp": "2025-12-10T21:43:21.743247+00:00",
        "meta_object_name": "WORLDVIEW-2 (WV-2)",
        "meta_object_id": "2009-055A",
        "meta_epoch": "2025-12-10T13:55:55.180128",
        "meta_mean_motion": 14.37651335,
        "meta_eccentricity": 0.00053401,
        "meta_inclination": 98.4762,
        "meta_ra_of_asc_node": 55.6946,
        "meta_arg_of_pericenter": 72.1731,
        "meta_mean_anomaly": 288.0038,
        "meta_ephemeris_type": 0,
        "meta_classification_type": "U",
        "meta_norad_cat_id": 35946,
        "meta_element_set_no": 999,
        "meta_rev_at_epoch": 84854,
        "meta_bstar": 0.00011523257,
        "meta_mean_motion_dot": 3.03e-06,
        "meta_mean_motion_ddot": 0,
        "tle_line1": "1 35946U 09055A   25344.58049977  .00000303  00000+0  11523-3 0  9993",
        "tle_line2": "2 35946  98.4762  55.6946 0005340  72.1731 288.0038 14.37651335848549"
      },
      "geometry": {
        "type": "Point",
        "coordinates": [
          -137.95466658409265,
          -58.294812956386096
        ]
      }
    }
  ]
}